NORAD_CAT_ID,OBJECT_NAME,OBJECT_TYPE,EPOCH,MEAN_MOTION,ECCENTRICITY,INCLINATION,RA_OF_ASC_NODE,ARG_OF_PERICENTER,MEAN_ANOMALY,BSTAR,MEAN_MOTION_DOT,MEAN_MOTION_DDOT,TLE_LINE0,TLE_LINE1,TLE_LINE2,SEMIMAJOR_AXIS,PERIOD,APOGEE,PERIGEE,DECAYED
55768.0,STARLINK-5583,PAYLOAD,2023-11-23 00:04:01,14.98307331,0.0002359,69.9991,176.6471,269.421,90.6679,0.00060585,7.139e-05,0.0,0 STARLINK-5583,1 55768U 23028AD  23327.00279012  .00007139  00000-0  60585-3 0  9991,2 55768  69.9991 176.6471 0002359 269.4210  90.6679 14.98307331 41046,6950.263,96.108,573.768,570.488,0.0
55768.0,STARLINK-5583,PAYLOAD,2023-11-23 14:29:13,14.98329995,0.0002146,70.0001,175.1325,262.909,97.1825,-8.0778e-05,-1.057e-05,0.0,0 STARLINK-5583,1 55768U 23028AD  23327.60363197 -.00001057  00000-0 -80778-4 0  9997,2 55768  70.0001 175.1325 0002146 262.9090  97.1825 14.98329995 41147,6950.193,96.107,573.549,570.566,0.0
55768.0,STARLINK-5583,PAYLOAD,2023-11-23 22:29:54,14.98321294,0.0002324,69.9998,174.2913,260.8866,99.203,-0.00016334,-2.041e-05,0.0,0 STARLINK-5583,1 55768U 23028AD  23327.93743972 -.00002041  00000-0 -16334-3 0  9996,2 55768  69.9998 174.2913 0002324 260.8866  99.2030 14.98321294 41198,6950.22,96.108,573.7,570.47,0.0
55768.0,STARLINK-5583,PAYLOAD,2023-11-24 00:06:02,14.98322903,0.000255,69.9996,174.1249,265.8073,94.2795,-0.0001444,-1.815e-05,0.0,0 STARLINK-5583,1 55768U 23028AD  23328.00419878 -.00001815  00000-0 -14440-3 0  9994,2 55768  69.9996 174.1249 0002550 265.8073  94.2795 14.98322903 41194,6950.215,96.107,573.852,570.308,0.0
55768.0,STARLINK-5583,PAYLOAD,2023-11-24 14:31:15,14.98327739,0.0003134,69.9985,172.6082,279.8479,80.2326,-0.00013851,-1.745e-05,0.0,0 STARLINK-5583,1 55768U 23028AD  23328.60503688 -.00001745  00000-0 -13851-3 0  9990,2 55768  69.9985 172.6082 0003134 279.8479  80.2326 14.98327739 41292,6950.2,96.107,574.243,569.887,0.0
55768.0,STARLINK-5583,PAYLOAD,2023-11-24 22:31:55,14.98330921,0.0002734,69.9988,171.7659,277.608,82.4768,-8.3953e-05,-1.095e-05,0.0,0 STARLINK-5583,1 55768U 23028AD  23328.93883368 -.00001095  00000-0 -83953-4 0  9991,2 55768  69.9988 171.7659 0002734 277.6080  82.4768 14.98330921 41341,6950.19,96.107,573.955,570.155,0.0
55768.0,STARLINK-5583,PAYLOAD,2023-11-25 00:08:03,14.9833264,0.0002806,69.9987,171.5983,276.2699,83.814,-6.9016e-05,-9.16e-06,0.0,0 STARLINK-5583,1 55768U 23028AD  23329.00559202 -.00000916  00000-0 -69016-4 0  9992,2 55768  69.9987 171.5983 0002806 276.2699  83.8140 14.98332640 41348,6950.185,96.107,574.0,570.1,0.0
55768.0,STARLINK-5583,PAYLOAD,2023-11-25 14:33:15,14.98326616,0.0002828,69.9987,170.0833,274.9814,85.1022,0.00011982,1.337e-05,0.0,0 STARLINK-5583,1 55768U 23028AD  23329.60643065  .00001337  00000-0  11982-3 0  9993,2 55768  69.9987 170.0833 0002828 274.9814  85.1022 14.98326616 41445,6950.203,96.107,574.034,570.103,0.0
55768.0,STARLINK-5583,PAYLOAD,2023-11-25 22:33:55,14.98329442,0.0002283,69.9996,169.242,267.1468,92.943,0.00016761,1.907e-05,0.0,0 STARLINK-5583,1 55768U 23028AD  23329.94022793  .00001907  00000-0  16761-3 0  9992,2 55768  69.9996 169.2420 0002283 267.1468  92.9430 14.98329442 41495,6950.195,96.107,573.646,570.473,0.0
55768.0,STARLINK-5583,PAYLOAD,2023-11-26 14:35:16,14.9833283,0.0002166,69.9997,167.5589,257.1457,102.946,7.0849e-05,7.53e-06,0.0,0 STARLINK-5583,1 55768U 23028AD  23330.60782710  .00000753  00000-0  70849-4 0  9995,2 55768  69.9997 167.5589 0002166 257.1457 102.9460 14.98332830 41591,6950.184,96.107,573.555,570.544,0.0
55768.0,STARLINK-5583,PAYLOAD,2023-11-26 19:23:40,14.98331144,0.0002193,69.9999,167.0539,256.2154,103.8761,5.9191e-05,6.13e-06,0.0,0 STARLINK-5583,1 55768U 23028AD  23330.80810794  .00000613  00000-0  59191-4 0  9993,2 55768  69.9999 167.0539 0002193 256.2154 103.8761 14.98331144 41611,6950.189,96.107,573.579,570.53,0.0
55768.0,STARLINK-5583,PAYLOAD,2023-11-26 22:35:56,14.98327778,0.0002308,69.9996,166.7172,263.2191,96.8705,1.3521e-05,6.8e-07,0.0,0 STARLINK-5583,1 55768U 23028AD  23330.94163169  .00000068  00000-0  13521-4 0  9996,2 55768  69.9996 166.7172 0002308 263.2191  96.8705 14.98327778 41644,6950.2,96.107,573.669,570.461,0.0
55768.0,STARLINK-5583,PAYLOAD,2023-11-27 14:37:17,14.98333484,0.0002393,69.9993,165.0336,265.4251,94.6635,-7.9692e-05,-1.044e-05,0.0,0 STARLINK-5583,1 55768U 23028AD  23331.60922988 -.00001044  00000-0 -79692-4 0  9990,2 55768  69.9993 165.0336 0002393 265.4251  94.6635 14.98333484 41740,6950.182,96.107,573.71,570.384,0.0
55768.0,STARLINK-5583,PAYLOAD,2023-11-27 21:01:49,14.98331233,0.0002444,69.9994,164.3602,266.4747,93.6132,-9.9603e-05,-1.281e-05,0.0,0 STARLINK-5583,1 55768U 23028AD  23331.87627130 -.00001281  00000-0 -99603-4 0  9997,2 55768  69.9994 164.3602 0002444 266.4747  93.6132 14.98331233 41782,6950.189,96.107,573.753,570.355,0.0
55768.0,STARLINK-5583,PAYLOAD,2023-11-27 22:37:57,14.98331088,0.0002565,69.9994,164.1916,271.8435,88.243,-7.4132e-05,-9.77e-06,0.0,0 STARLINK-5583,1 55768U 23028AD  23331.94303071 -.00000977  00000-0 -74132-4 0  9991,2 55768  69.9994 164.1916 0002565 271.8435  88.2430 14.98331088 41785,6950.19,96.107,573.837,570.272,0.0
55768.0,STARLINK-5583,PAYLOAD,2023-11-28 14:39:17,14.98333642,0.000259,69.9993,162.5085,270.0665,90.0197,2.4144e-05,1.95e-06,0.0,0 STARLINK-5583,1 55768U 23028AD  23332.61062459  .00000195  00000-0  24144-4 0  9996,2 55768  69.9993 162.5085 0002590 270.0665  90.0197 14.98333642 41898,6950.182,96.107,573.847,570.247,0.0
55768.0,STARLINK-5583,PAYLOAD,2023-11-28 19:27:42,14.98334518,0.0002621,69.9995,162.0036,270.4046,89.6813,3.1571e-05,2.84e-06,0.0,0 STARLINK-5583,1 55768U 23028AD  23332.81090330  .00000284  00000-0  31571-4 0  9998,2 55768  69.9995 162.0036 0002621 270.4046  89.6813 14.98334518 41918,6950.179,96.107,573.866,570.222,0.0
55768.0,STARLINK-5583,PAYLOAD,2023-11-28 22:39:58,14.98334598,0.0002621,69.9996,161.6672,270.4258,89.66,3.1988e-05,2.89e-06,0.0,0 STARLINK-5583,1 55768U 23028AD  23332.94442289  .00000289  00000-0  31988-4 0  9993,2 55768  69.9996 161.6672 0002621 270.4258  89.6600 14.98334598 41940,6950.179,96.107,573.865,570.222,0.0
55768.0,STARLINK-5583,PAYLOAD,2023-11-29 14:41:19,14.98329117,0.0002582,69.9997,159.984,269.7564,90.3299,1.9571e-05,1.41e-06,0.0,0 STARLINK-5583,1 55768U 23028AD  23333.61202590  .00000141  00000-0  19571-4 0  9998,2 55768  69.9997 159.9840 0002582 269.7564  90.3299 14.98329117 42041,6950.196,96.107,573.855,570.266,0.0
55768.0,STARLINK-5583,PAYLOAD,2023-11-29 19:29:43,14.98328732,0.0002585,69.9996,159.4788,269.6326,90.4536,1.4217e-05,7.7e-07,0.0,0 STARLINK-5583,1 55768U 23028AD  23333.81230626  .00000077  00000-0  14217-4 0  9991,2 55768  69.9996 159.4788 0002585 269.6326  90.4536 14.98328732 42063,6950.197,96.107,573.858,570.265,0.0
55768.0,STARLINK-5583,PAYLOAD,2023-11-30 19:31:44,14.98330738,0.0002509,69.9999,156.9548,268.8104,91.2768,-4.1751e-05,-5.91e-06,0.0,0 STARLINK-5583,1 55768U 23028AD  23334.81370582 -.00000591  00000-0 -41751-4 0  9994,2 55768  69.9999 156.9548 0002509 268.8104  91.2768 14.98330738 42215,6950.191,96.107,573.799,570.312,0.0
55768.0,STARLINK-5583,PAYLOAD,2023-12-01 19:33:44,14.98352778,0.0002639,69.9993,154.4294,265.3101,94.7757,-0.00032001,-3.911e-05,0.0,0 STARLINK-5583,1 55768U 23028AD  23335.81509774 -.00003911  00000-0 -32001-3 0  9998,2 55768  69.9993 154.4294 0002639 265.3101  94.7757 14.98352778 42363,6950.122,96.106,573.822,570.153,0.0
55768.0,STARLINK-5583,PAYLOAD,2023-12-01 21:09:52,14.98332349,0.0002531,69.9995,154.2614,266.5788,93.5082,3.0826e-05,2.75e-06,0.0,0 STARLINK-5583,1 55768U 23028AD  23335.88186146  .00000275  00000-0  30826-4 0  9991,2 55768  69.9995 154.2614 0002531 266.5788  93.5082 14.98332349 42386,6950.186,96.107,573.81,570.292,0.0
55768.0,STARLINK-5583,PAYLOAD,2023-12-02 14:47:21,14.98334463,0.0002581,69.9994,152.41,265.8731,94.2133,-4.0507e-05,-5.76e-06,0.0,0 STARLINK-5583,1 55768U 23028AD  23336.61622095 -.00000576  00000-0 -40507-4 0  9994,2 55768  69.9994 152.4100 0002581 265.8731  94.2133 14.98334463 42496,6950.179,96.107,573.838,570.25,0.0
55768.0,STARLINK-5583,PAYLOAD,2023-12-02 21:11:53,14.98342258,0.0002599,69.9991,151.7359,263.2353,96.851,-0.00016417,-2.052e-05,0.0,0 STARLINK-5583,1 55768U 23028AD  23336.88325775 -.00002052  00000-0 -16417-3 0  9991,2 55768  69.9991 151.7359 0002599 263.2353  96.8510 14.98342258 42535,6950.155,96.106,573.826,570.214,0.0
55768.0,STARLINK-5583,PAYLOAD,2023-12-03 11:37:07,14.98325917,0.0002515,69.9995,150.2201,259.5185,100.569,-0.00012304,-1.561e-05,0.0,0 STARLINK-5583,1 55768U 23028AD  23337.48410891 -.00001561  00000-0 -12304-3 0  9997,2 55768  69.9995 150.2201 0002515 259.5185 100.5690 14.98325917 42612,6950.206,96.107,573.818,570.323,0.0
55768.0,STARLINK-5583,PAYLOAD,2023-12-03 13:13:15,14.98323416,0.0002442,69.9992,150.0522,257.3933,102.6953,-9.3635e-05,-1.21e-05,0.0,0 STARLINK-5583,1 55768U 23028AD  23337.55086959 -.00001210  00000-0 -93635-4 0  9997,2 55768  69.9992 150.0522 0002442 257.3933 102.6953 14.98323416 42638,6950.213,96.107,573.775,570.381,0.0
55768.0,STARLINK-5583,PAYLOAD,2023-12-04 11:39:08,14.98279088,0.0002446,69.9991,147.6946,276.2168,83.8713,0.00067781,7.993e-05,0.0,0 STARLINK-5583,1 55768U 23028AD  23338.48551559  .00007993  00000-0  67781-3 0  9997,2 55768  69.9991 147.6946 0002446 276.2168  83.8713 14.98279088 42766,6950.35,96.11,573.915,570.515,0.0
55768.0,STARLINK-5583,PAYLOAD,2023-12-04 13:15:16,14.98272241,0.0002494,69.9989,147.5266,276.5432,83.5443,0.00077409,9.141e-05,0.0,0 STARLINK-5583,1 55768U 23028AD  23338.55227852  .00009141  00000-0  77409-3 0  9996,2 55768  69.9989 147.5266 0002494 276.5432  83.5443 14.98272241 42780,6950.372,96.111,573.97,570.503,0.0
55768.0,STARLINK-5583,PAYLOAD,2023-12-04 21:15:57,14.98307479,0.0002681,69.9987,146.6857,270.351,89.7342,0.00026193,3.032e-05,0.0,0 STARLINK-5583,1 55768U 23028AD  23338.88607707  .00003032  00000-0  26193-3 0  9990,2 55768  69.9987 146.6857 0002681 270.3510  89.7342 14.98307479 42835,6950.263,96.108,573.991,570.264,0.0
